STARLINK-31217          
1 59036U 24038P   25351.19313244 -.00001322  00000+0 -38533-4 0  9998
2 59036  43.0007  35.1157 0001078 240.1598 119.9147 15.27589395103321
STARLINK-31208          
1 59037U 24038Q   25351.11552200  .00000626  00000+0  32266-4 0  9999
2 59037  43.0001 133.8283 0001116 277.0154  83.0571 15.27580345102183
STARLINK-31235          
1 59038U 24038R   25350.68001001  .00000592  00000+0  31020-4 0  9998
2 59038  43.0007 132.3003 0001430 274.1818  85.8870 15.27582682102108
STARLINK-31220          
1 59039U 24038S   25350.74746820  .00002159  00000+0  87930-4 0  9993
2 59039  43.0015 135.3896 0001473 257.1788 102.8899 15.27584895102070
STARLINK-31225          
1 59040U 24038T   25350.73124577  .00002360  00000+0  95230-4 0  9999
2 59040  43.0020 131.7852 0001563 267.3380  92.7293 15.27584604102007
STARLINK-31240          
1 59041U 24038U   25351.09673443  .00001686  00000+0  70788-4 0  9992
2 59041  43.0021 130.2730 0001355 275.5362  84.5335 15.27583750102162
STARLINK-31202          
1 59042U 24038V   25350.70811042  .00004804  00000+0  18393-3 0  9997
2 59042  43.0026 131.6649 0001495 294.5865  65.4831 15.27589750102172
STARLINK-31234          
1 59043U 24038W   25351.09031424  .00001231  00000+0  54239-4 0  9990
2 59043  42.9999 130.2215 0001295 277.1729  82.8976 15.27579502102052
STARLINK-31153          
1 59044U 24038X   25350.80694010  .00000052  00000+0  11435-4 0  9996
2 59044  43.0004 131.5311 0001483 256.1814 103.8873 15.27567331102017
STARLINK-31241          
1 59045U 24038Y   25351.09416966  .00001177  00000+0  52293-4 0  9997
2 59045  42.9995 130.2507 0001012 282.3630  77.7108 15.27579817102228
STARLINK-31205          
1 59046U 24038Z   25351.08647347  .00004295  00000+0  16564-3 0  9990
2 59046  43.0014 130.1921 0000995 267.7716  92.3022 15.27552660102161
STARLINK-31265          
1 59074U 24041A   25351.25189782  .00000117  00000+0  13774-4 0  9998
2 59074  43.0033  56.2771 0001115 268.9708  91.1016 15.27590281101668
STARLINK-31276          
1 59075U 24041B   25350.50055476 -.00003506  00000+0 -11804-3 0  9996
2 59075  43.0036  60.1035 0003170 275.7867  84.2623 15.27543155101603
STARLINK-31259          
1 59076U 24041C   25350.50437603  .00001739  00000+0  72695-4 0  9993
2 59076  43.0016  60.1350 0001118 280.3703  79.7023 15.27585335100500
STARLINK-31281          
1 59077U 24041D   25351.22750064 -.00003119  00000+0 -10390-3 0  9992
2 59077  43.0013  56.1004 0001033 279.9344  80.1391 15.27565870101710
STARLINK-31274          
1 59078U 24041E   25351.19165640 -.00007968  00000+0 -28009-3 0  9991
2 59078  43.0019  56.6820 0002081 285.2585  74.8036 15.27604191101658
