[{"OBJECT_NAME":"STARLINK-31217","OBJECT_ID":"2024-038P","EPOCH":"2025-12-17T04:38:06.642816","MEAN_MOTION":15.27589395,"ECCENTRICITY":0.00010787,"INCLINATION":43.0007,"RA_OF_ASC_NODE":35.1157,"ARG_OF_PERICENTER":240.1598,"MEAN_ANOMALY":119.9147,"EPHEMERIS_TYPE":0,"CLASSIFICATION_TYPE":"U","NORAD_CAT_ID":59036,"ELEMENT_SET_NO":999,"REV_AT_EPOCH":10332,"BSTAR":-3.8532764e-5,"MEAN_MOTION_DOT":-1.322e-5,"MEAN_MOTION_DDOT":0},{"OBJECT_NAME":"STARLINK-31208","OBJECT_ID":"2024-038Q","EPOCH":"2025-12-17T02:46:21.100800","MEAN_MOTION":15.27580345,"ECCENTRICITY":0.00011169,"INCLINATION":43.0001,"RA_OF_ASC_NODE":133.8283,"ARG_OF_PERICENTER":277.0154,"MEAN_ANOMALY":83.0571,"EPHEMERIS_TYPE":0,"CLASSIFICATION_TYPE":"U","NORAD_CAT_ID":59037,"ELEMENT_SET_NO":999,"REV_AT_EPOCH":10218,"BSTAR":3.2265847e-5,"MEAN_MOTION_DOT":6.26e-6,"MEAN_MOTION_DDOT":0},{"OBJECT_NAME":"STARLINK-31235","OBJECT_ID":"2024-038R","EPOCH":"2025-12-16T16:19:12.864864","MEAN_MOTION":15.27582682,"ECCENTRICITY":0.00014309,"INCLINATION":43.0007,"RA_OF_ASC_NODE":132.3003,"ARG_OF_PERICENTER":274.1818,"MEAN_ANOMALY":85.887,"EPHEMERIS_TYPE":0,"CLASSIFICATION_TYPE":"U","NORAD_CAT_ID":59038,"ELEMENT_SET_NO":999,"REV_AT_EPOCH":10210,"BSTAR":3.1019719e-5,"MEAN_MOTION_DOT":5.92e-6,"MEAN_MOTION_DDOT":0},{"OBJECT_NAME":"STARLINK-31220","OBJECT_ID":"2024-038S","EPOCH":"2025-12-16T17:56:21.252480","MEAN_MOTION":15.27584895,"ECCENTRICITY":0.00014732,"INCLINATION":43.0015,"RA_OF_ASC_NODE":135.3896,"ARG_OF_PERICENTER":257.1788,"MEAN_ANOMALY":102.8899,"EPHEMERIS_TYPE":0,"CLASSIFICATION_TYPE":"U","NORAD_CAT_ID":59039,"ELEMENT_SET_NO":999,"REV_AT_EPOCH":10207,"BSTAR":8.7929705e-5,"MEAN_MOTION_DOT":2.159e-5,"MEAN_MOTION_DDOT":0},{"OBJECT_NAME":"STARLINK-31225","OBJECT_ID":"2024-038T","EPOCH":"2025-12-16T17:32:59.634528","MEAN_MOTION":15.27584604,"ECCENTRICITY":0.00015638,"INCLINATION":43.002,"RA_OF_ASC_NODE":131.7852,"ARG_OF_PERICENTER":267.338,"MEAN_ANOMALY":92.7293,"EPHEMERIS_TYPE":0,"CLASSIFICATION_TYPE":"U","NORAD_CAT_ID":59040,"ELEMENT_SET_NO":999,"REV_AT_EPOCH":10200,"BSTAR":9.5230137e-5,"MEAN_MOTION_DOT":2.36e-5,"MEAN_MOTION_DDOT":0},{"OBJECT_NAME":"STARLINK-31240","OBJECT_ID":"2024-038U","EPOCH":"2025-12-17T02:19:17.854752","MEAN_MOTION":15.2758375,"ECCENTRICITY":0.00013554,"INCLINATION":43.0021,"RA_OF_ASC_NODE":130.273,"ARG_OF_PERICENTER":275.5362,"MEAN_ANOMALY":84.5335,"EPHEMERIS_TYPE":0,"CLASSIFICATION_TYPE":"U","NORAD_CAT_ID":59041,"ELEMENT_SET_NO":999,"REV_AT_EPOCH":10216,"BSTAR":7.0787556e-5,"MEAN_MOTION_DOT":1.686e-5,"MEAN_MOTION_DDOT":0},{"OBJECT_NAME":"STARLINK-31202","OBJECT_ID":"2024-038V","EPOCH":"2025-12-16T16:59:40.740288","MEAN_MOTION":15.2758975,"ECCENTRICITY":0.00014951,"INCLINATION":43.0026,"RA_OF_ASC_NODE":131.6649,"ARG_OF_PERICENTER":294.5865,"MEAN_ANOMALY":65.4831,"EPHEMERIS_TYPE":0,"CLASSIFICATION_TYPE":"U","NORAD_CAT_ID":59042,"ELEMENT_SET_NO":999,"REV_AT_EPOCH":10217,"BSTAR":0.00018393048,"MEAN_MOTION_DOT":4.804e-5,"MEAN_MOTION_DDOT":0},{"OBJECT_NAME":"STARLINK-31234","OBJECT_ID":"2024-038W","EPOCH":"2025-12-17T02:10:03.150336","MEAN_MOTION":15.27579502,"ECCENTRICITY":0.00012953,"INCLINATION":42.9999,"RA_OF_ASC_NODE":130.2215,"ARG_OF_PERICENTER":277.1729,"MEAN_ANOMALY":82.8976,"EPHEMERIS_TYPE":0,"CLASSIFICATION_TYPE":"U","NORAD_CAT_ID":59043,"ELEMENT_SET_NO":999,"REV_AT_EPOCH":10205,"BSTAR":5.4239199e-5,"MEAN_MOTION_DOT":1.231e-5,"MEAN_MOTION_DDOT":0},{"OBJECT_NAME":"STARLINK-31153","OBJECT_ID":"2024-038X","EPOCH":"2025-12-16T19:21:59.624640","MEAN_MOTION":15.27567331,"ECCENTRICITY":0.00014839,"INCLINATION":43.0004,"RA_OF_ASC_NODE":131.5311,"ARG_OF_PERICENTER":256.1814,"MEAN_ANOMALY":103.8873,"EPHEMERIS_TYPE":0,"CLASSIFICATION_TYPE":"U","NORAD_CAT_ID":59044,"ELEMENT_SET_NO":999,"REV_AT_EPOCH":10201,"BSTAR":1.1434729e-5,"MEAN_MOTION_DOT":5.2e-7,"MEAN_MOTION_DDOT":0},{"OBJECT_NAME":"STARLINK-31241","OBJECT_ID":"2024-038Y","EPOCH":"2025-12-17T02:15:36.258624","MEAN_MOTION":15.27579817,"ECCENTRICITY":0.00010123,"INCLINATION":42.9995,"RA_OF_ASC_NODE":130.2507,"ARG_OF_PERICENTER":282.363,"MEAN_ANOMALY":77.7108,"EPHEMERIS_TYPE":0,"CLASSIFICATION_TYPE":"U","NORAD_CAT_ID":59045,"ELEMENT_SET_NO":999,"REV_AT_EPOCH":10222,"BSTAR":5.2293115e-5,"MEAN_MOTION_DOT":1.177e-5,"MEAN_MOTION_DDOT":0},{"OBJECT_NAME":"STARLINK-31205","OBJECT_ID":"2024-038Z","EPOCH":"2025-12-17T02:04:31.307808","MEAN_MOTION":15.2755266,"ECCENTRICITY":9.959e-5,"INCLINATION":43.0014,"RA_OF_ASC_NODE":130.1921,"ARG_OF_PERICENTER":267.7716,"MEAN_ANOMALY":92.3022,"EPHEMERIS_TYPE":0,"CLASSIFICATION_TYPE":"U","NORAD_CAT_ID":59046,"ELEMENT_SET_NO":999,"REV_AT_EPOCH":10216,"BSTAR":0.00016564454,"MEAN_MOTION_DOT":4.295e-5,"MEAN_MOTION_DDOT":0},{"OBJECT_NAME":"STARLINK-31265","OBJECT_ID":"2024-041A","EPOCH":"2025-12-17T06:02:43.971648","MEAN_MOTION":15.27590281,"ECCENTRICITY":0.00011156,"INCLINATION":43.0033,"RA_OF_ASC_NODE":56.2771,"ARG_OF_PERICENTER":268.9708,"MEAN_ANOMALY":91.1016,"EPHEMERIS_TYPE":0,"CLASSIFICATION_TYPE":"U","NORAD_CAT_ID":59074,"ELEMENT_SET_NO":999,"REV_AT_EPOCH":10166,"BSTAR":1.3774074e-5,"MEAN_MOTION_DOT":1.17e-6,"MEAN_MOTION_DDOT":0},{"OBJECT_NAME":"STARLINK-31276","OBJECT_ID":"2024-041B","EPOCH":"2025-12-16T12:00:47.931264","MEAN_MOTION":15.27543155,"ECCENTRICITY":0.00031705,"INCLINATION":43.0036,"RA_OF_ASC_NODE":60.1035,"ARG_OF_PERICENTER":275.7867,"MEAN_ANOMALY":84.2623,"EPHEMERIS_TYPE":0,"CLASSIFICATION_TYPE":"U","NORAD_CAT_ID":59075,"ELEMENT_SET_NO":999,"REV_AT_EPOCH":10160,"BSTAR":-0.00011804142,"MEAN_MOTION_DOT":-3.506e-5,"MEAN_MOTION_DDOT":0},{"OBJECT_NAME":"STARLINK-31259","OBJECT_ID":"2024-041C","EPOCH":"2025-12-16T12:06:18.088992","MEAN_MOTION":15.27585335,"ECCENTRICITY":0.00011186,"INCLINATION":43.0016,"RA_OF_ASC_NODE":60.135,"ARG_OF_PERICENTER":280.3703,"MEAN_ANOMALY":79.7023,"EPHEMERIS_TYPE":0,"CLASSIFICATION_TYPE":"U","NORAD_CAT_ID":59076,"ELEMENT_SET_NO":999,"REV_AT_EPOCH":10050,"BSTAR":7.2695466e-5,"MEAN_MOTION_DOT":1.739e-5,"MEAN_MOTION_DDOT":0},{"OBJECT_NAME":"STARLINK-31281","OBJECT_ID":"2024-041D","EPOCH":"2025-12-17T05:27:36.055296","MEAN_MOTION":15.2756587,"ECCENTRICITY":0.00010335,"INCLINATION":43.0013,"RA_OF_ASC_NODE":56.1004,"ARG_OF_PERICENTER":279.9344,"MEAN_ANOMALY":80.1391,"EPHEMERIS_TYPE":0,"CLASSIFICATION_TYPE":"U","NORAD_CAT_ID":59077,"ELEMENT_SET_NO":999,"REV_AT_EPOCH":10171,"BSTAR":-0.00010390167,"MEAN_MOTION_DOT":-3.119e-5,"MEAN_MOTION_DDOT":0},{"OBJECT_NAME":"STARLINK-31274","OBJECT_ID":"2024-041E","EPOCH":"2025-12-17T04:35:59.112960","MEAN_MOTION":15.27604191,"ECCENTRICITY":0.00020812,"INCLINATION":43.0019,"RA_OF_ASC_NODE":56.682,"ARG_OF_PERICENTER":285.2585,"MEAN_ANOMALY":74.8036,"EPHEMERIS_TYPE":0,"CLASSIFICATION_TYPE":"U","NORAD_CAT_ID":59078,"ELEMENT_SET_NO":999,"REV_AT_EPOCH":10165,"BSTAR":-0.00028008765,"MEAN_MOTION_DOT":-7.968e-5,"MEAN_MOTION_DDOT":0}]
